[{"OBJECT_NAME":"STARLINK-35763","OBJECT_ID":"2025-298Q","EPOCH":"2026-03-09T21:34:03.944928","MEAN_MOTION":14.98333596,"ECCENTRICITY":0.00024722,"INCLINATION":70.0022,"RA_OF_ASC_NODE":14.1324,"ARG_OF_PERICENTER":260.566,"MEAN_ANOMALY":99.522,"EPHEMERIS_TYPE":0,"CLASSIFICATION_TYPE":"U","NORAD_CAT_ID":67089,"ELEMENT_SET_NO":999,"REV_AT_EPOCH":1324,"BSTAR":0.00069308893,"MEAN_MOTION_DOT":8.187e-5,"MEAN_MOTION_DDOT":0},{"OBJECT_NAME":"COSMOS 2251 DEB","OBJECT_ID":"1993-036BVX","EPOCH":"2026-03-07T01:08:49.279776","MEAN_MOTION":15.01172156,"ECCENTRICITY":0.00079061,"INCLINATION":73.9738,"RA_OF_ASC_NODE":312.9961,"ARG_OF_PERICENTER":93.9407,"MEAN_ANOMALY":333.6878,"EPHEMERIS_TYPE":0,"CLASSIFICATION_TYPE":"U","NORAD_CAT_ID":40794,"ELEMENT_SET_NO":999,"REV_AT_EPOCH":63186,"BSTAR":0.0025789321,"MEAN_MOTION_DOT":0.00033218,"MEAN_MOTION_DDOT":0}]
